[
    {
        "Altitude(m)": 624790.7692601184,
        "Argument of Periapsis(deg)": 0.0,
        "Eccentricity": 0.0,
        "Inclination(deg)": 60.0,
        "Latitude(deg)": -59.14703736838222,
        "Longitude(deg)": 91.03463584968127,
        "Mean Anomaly(deg)": -81.8182,
        "RAAN(deg)": 265.0,
        "Satellite Name": "Test1 1183",
        "Satellite Number": 1183,
        "Semi-Major Axis(m)": 6980739.136638005,
        "Time(s)": 0
    },
    {
        "Altitude(m)": 624737.4241453357,
        "Argument of Periapsis(deg)": 0.00010418945913296404,
        "Eccentricity": 0.0,
        "Inclination(deg)": 60.0,
        "Latitude(deg)": -58.994492175032484,
        "Longitude(deg)": 92.15413516475645,
        "Mean Anomaly(deg)": -81.19809385453816,
        "RAAN(deg)": 264.99957995086027,
        "Satellite Name": "Test1 1183",
        "Satellite Number": 1183,
        "Semi-Major Axis(m)": 6980739.136638005,
        "Time(s)": 10
    }
]